[{"OBJECT_NAME":"STARLINK-33773","OBJECT_ID":"2025-087S","EPOCH":"2026-03-09T16:47:25.587744","MEAN_MOTION":15.30225288,"ECCENTRICITY":7.371e-5,"INCLINATION":53.158,"RA_OF_ASC_NODE":219.3267,"ARG_OF_PERICENTER":103.6981,"MEAN_ANOMALY":256.4102,"EPHEMERIS_TYPE":0,"CLASSIFICATION_TYPE":"U","NORAD_CAT_ID":63713,"ELEMENT_SET_NO":999,"REV_AT_EPOCH":4920,"BSTAR":0.00087029488,"MEAN_MOTION_DOT":0.00025525,"MEAN_MOTION_DDOT":0},{"OBJECT_NAME":"OBJECT A","OBJECT_ID":"2025-234A","EPOCH":"2026-03-09T23:03:34.210368","MEAN_MOTION":15.32505956,"ECCENTRICITY":0.00130678,"INCLINATION":97.4388,"RA_OF_ASC_NODE":139.352,"ARG_OF_PERICENTER":148.634,"MEAN_ANOMALY":211.5684,"EPHEMERIS_TYPE":0,"CLASSIFICATION_TYPE":"U","NORAD_CAT_ID":66053,"ELEMENT_SET_NO":999,"REV_AT_EPOCH":2164,"BSTAR":0.0014840662,"MEAN_MOTION_DOT":0.00046856,"MEAN_MOTION_DDOT":0}]
